SEAHAWK-1               
1 43820U 18099BQ  25007.58545768  .00012205  00000+0  72895-3 0  9999
2 43820  97.4757  64.8156 0010263 346.1671  13.9277 15.11202137332839
SAUDISAT 5A             
1 43831U 18102A   25008.18669001  .00009554  00000+0  44131-3 0  9995
2 43831  97.3824  75.1800 0011403 176.8458 183.2851 15.20347349335695
SAUDISAT 5B             
1 43833U 18102C   25008.14384297  .00008901  00000+0  40495-3 0  9998
2 43833  97.3889  77.2946 0011998 180.8871 179.2345 15.20883360335786
2018-102D               
1 43834U 18102D   25008.45325286  .00020957  00000+0  69568-3 0  9993
2 43834  97.4010  84.3214 0009477 164.3017 195.8520 15.31209984336190
2018-102E               
1 43835U 18102E   25007.21244822  .00254741  00000+0  15965-2 0  9994
2 43835  97.4089  96.7544 0001747 157.6173 202.5168 15.76065434336889
2018-102F               
1 43836U 18102F   25006.93641058  .00613027  13402-3  19795-2 0  9990
2 43836  97.4067  99.3182 0006173 263.6119 209.2624 15.90788660336722
2018-102J               
1 43839U 18102J   25008.32395671  .01360476  86684-3  43432-2 0  9990
2 43839  97.4201 105.8642 0019978 268.5620  91.3365 15.90912168337250
ISAT                    
1 43879U 18111D   25007.67820162  .00026625  00000+0  11948-2 0  9994
2 43879  97.6055 279.6109 0012014  24.5987 335.5818 15.21101105330389
UWE-4                   
1 43880U 18111E   25007.47323031  .00020551  00000+0  98732-3 0  9996
2 43880  97.5991 278.7525 0015574  32.1454 328.0726 15.18757841330339
D-STAR ONE (SPARROW)    
1 43881U 18111F   25007.69598160  .00027155  00000+0  11904-2 0  9990
2 43881  97.6171 282.0008 0010671  58.8396 301.3885 15.21911121330469
LEMUR-2-REMY-COLTON     
1 43884U 18111J   25007.75196372  .00087386  00000+0  18285-2 0  9990
2 43884  97.6226 292.5814 0003715  84.2604 275.9067 15.45134724329132
JILIN-1 09              
1 43943U 19005B   25008.52027864  .00008203  00000+0  44299-3 0  9990
2 43943  97.4845 105.2190 0004935 102.1907 257.9879 15.14966774329585
JILIN-1 10              
1 43946U 19005E   25008.50665410  .00008665  00000+0  43325-3 0  9997
2 43946  97.4842 105.5048 0010478 316.7951  43.2460 15.17634393329529
EGYPTSAT-A (MISRSAT-A)  
1 44047U 19008A   25008.48303888  .00001557  00000+0  25385-3 0  9997
2 44047  98.0178  75.7935 0000896  92.7222 267.4088 14.72354949316033
EMISAT                  
1 44078U 19018A   25008.42060408  .00000549  00000+0  17365-3 0  9993
2 44078  98.3116  69.2074 0018589   5.6299 354.5097 14.43727760304330
JILIN-1 GAOFEN 3A       
1 44312U 19032C   25008.39166824  .00013129  00000+0  63981-3 0  9998
2 44312  44.9847 334.1103 0009648 171.9302 188.1734 15.18328777307772
XIAOXIANG 4             
1 44313U 19032D   25008.22722050  .00043028  00000+0  12409-2 0  9999
2 44313  44.9948 300.4358 0013052 166.6741 193.4492 15.35003551308191
WT 1A                   
1 44315U 19032F   25008.24533833  .00028771  00000+0  10303-2 0  9991
2 44315  44.9882 302.8831 0012113 189.4031 170.6627 15.28251552308122
WT 1B                   
1 44316U 19032G   25008.45714839  .00009743  00000+0  55627-3 0  9999
2 44316  44.9797  14.9330 0011517 136.3802 223.7987 15.12961874307257
PROX-1                  
1 44339U 19036A   25007.58157049  .00018052  00000+0  26031-2 0  9994
2 44339  23.9997 342.9639 0007994 136.3325 223.7804 14.74695172295459
NPSAT1                  
1 44340U 19036B   25008.10560460  .00009985  00000+0  17207-2 0  9990
2 44340  24.0008  17.8908 0009182  71.5363 288.6129 14.66549849295153
FORMOSAT 7-3            
1 44343U 19036E   25007.74862386  .00009520  00000+0  58103-3 0  9990
2 44343  23.9971 184.8965 0001841  23.5241 336.5346 15.07983060303839
FORMOSAT 7-1            
1 44349U 19036L   25007.35254422  .00010585  00000+0  64827-3 0  9992
2 44349  24.0002   3.6182 0001351 275.2903  84.7446 15.07987980305546
FORMOSAT 7-4            
1 44350U 19036M   25007.83722542  .00010617  00000+0  65039-3 0  9992
2 44350  23.9997  62.3709 0001146  13.3991 346.6543 15.07983597305038
FORMOSAT 7-2            
1 44351U 19036N   25008.45500322  .00009236  00000+0  56307-3 0  9995
2 44351  23.9981 112.4526 0001877  34.6945 325.3680 15.07983875304698
FORMOSAT 7-6            
1 44353U 19036Q   25008.45499587  .00009692  00000+0  59160-3 0  9993
2 44353  23.9991 293.2870 0001341 344.7710  15.2753 15.08003772302911
FORMOSAT 7-5            
1 44358U 19036V   25007.77115564  .00009994  00000+0  61085-3 0  9996
2 44358  23.9976 237.7611 0001737   8.3224 351.7308 15.07991238303295
METEOR-M2 2             
1 44387U 19038A   25008.46372129  .00000332  00000+0  16388-3 0  9992
2 44387  98.8556 344.8147 0002297  88.6894 271.4547 14.24112990286608
SONATE                  
1 44400U 19038Q   25008.48644633  .00062064  00000+0  96269-3 0  9998
2 44400  97.7124  20.3973 0013690  87.9253 272.3567 15.53689994305729
COSMOS 2535             
1 44421U 19039A   25008.16596502  .00002367  00000+0  25093-3 0  9995
2 44421  97.6416  50.1022 0009324 150.7950 209.3792 14.89984214298309
QIANSHENG 1-01          
1 44486U 19052A   25008.14610251  .00058106  00000+0  12483-2 0  9997
2 44486  97.3829  82.8251 0008623 285.3752  74.6543 15.44451940298110
GLOBAL-4                
1 44499U 19054E   25008.20583043  .00027548  00000+0  72716-3 0  9990
2 44499  45.0147 305.5131 0007118 133.6048 226.5431 15.38010585299147
XIAOXIANG 1-07          
1 44519U 19058A   25008.14872599  .00520459  00000+0  32756-2 0  9995
2 44519  97.7433  44.6332 0001693 166.5642 193.5667 15.75230825293187
ZY-1 02D                
1 44528U 19059A   25008.18937790  .00000460  00000+0  17509-3 0  9990
2 44528  98.3888  81.2357 0000670 188.1385 171.9791 14.35446307279024
TAURUS-1 (JINNIUZUO 1)  
1 44530U 19059C   25008.45859565  .00011249  00000+0  22532-2 0  9994
2 44530  98.5888 141.2434 0010203 145.7006 214.4855 14.61911631281689
ZHUHAI-1 03A            
1 44534U 19060A   25008.43811096  .00053978  00000+0  11043-2 0  9995
2 44534  97.5051 146.5241 0009939   9.9192 350.2251 15.45896777295588
ZHUHAI-1 03B            
1 44536U 19060C   25008.18990325  .00031795  00000+0  10369-2 0  9995
2 44536  97.4982 146.5432 0012945  56.7783 303.4697 15.31658701295561
ZHUHAI-1 03C            
1 44537U 19060D   25008.15488363  .00031757  00000+0  99190-3 0  9995
2 44537  97.5229 147.4088 0021120  24.6353 335.5893 15.32903693295687
ZHUHAI-1 03D            
1 44538U 19060E   25008.18607448  .00026160  00000+0  99657-3 0  9996
2 44538  97.4798 142.7280 0013167  33.7486 326.4588 15.26617440295506
ZHUHAI-1 03E            
1 44539U 19060F   25008.47279223  .00026109  00000+0  95945-3 0  9994
2 44539  97.5037 144.8585 0013857  74.3699 285.9068 15.27800057295442
ATLAS 5 CENTAUR DEB     
1 44694U 18079BG  25006.41660447 -.00000117  00000+0  00000+0 0  9995
2 44694  12.8915  82.0595 4788563 215.0253 101.2059  1.77433294 37214
GAOFEN-7                
1 44703U 19072A   25008.21279017  .00009985  00000+0  44798-3 0  9996
2 44703  97.3126  82.0896 0011387  70.7518 289.4949 15.21332917287825
STARLINK-1010           
1 44716U 19074D   25007.83154846  .00005378  00000+0  37966-3 0  9992
2 44716  53.0549 298.3700 0002158  77.5200 282.6031 15.06400226284547
JILIN-1 GAOFEN 2A       
1 44777U 19075A   25008.53966291  .00013633  00000+0  58030-3 0  9991
2 44777  97.5535  79.9936 0010047 136.8399 223.3627 15.23069823284603
NINGXIA-1 1             
1 44779U 19076A   25008.55437124  .00000026  00000+0  10151-3 0  9998
2 44779  45.0082   4.0588 0010759 201.1900 158.8489 14.01978753264237
NINGXIA-1 5             
1 44783U 19076E   25008.49907256  .00000032  00000+0  10554-3 0  9998
2 44783  45.0080   3.6870 0010925 189.5551 170.5076 14.01898129264236
KL-ALPHA A              
1 44785U 19077A   25008.17908817  .00000123  00000+0  15901-3 0  9992
2 44785  88.9086 280.7232 0010209 191.4716 168.6206 13.55971024254584
CARTOSAT-3              
1 44804U 19081A   25008.41437664  .00006791  00000+0  32477-3 0  9997
2 44804  97.5059  71.2698 0014063 179.4061 180.7193 15.19235224283749
JILIN-1 GAOFEN 2B       
1 44836U 19086A   25008.22640743  .00010459  00000+0  55779-3 0  9996
2 44836  97.5524  79.5718 0007341 295.9846  64.0629 15.15331735280915
DUCHIFAT-3              
1 44854U 19089C   25007.99282964  .00037449  00000+0  12229-2 0  9999
2 44854  36.9484 233.6953 0011102 358.6890   1.3831 15.30797256279432
ANGELS                  
1 44876U 19092D   25007.80884694  .00028615  00000+0  87285-3 0  9995
2 44876  97.4635 203.4295 0008296 324.8432  35.2262 15.33866868280645
TIANQIN 1 (CAS-6)       
1 44879U 19093A   25008.45715700  .00005665  00000+0  58239-3 0  9999
2 44879  97.8210  91.5724 0012351   3.4073 356.7227 14.90677302273731
ETRSS-1                 
1 44880U 19093B   25008.47947291  .00005616  00000+0  57505-3 0  9996
2 44880  97.8213  91.7942 0012599   3.8449 356.2863 14.90838362273731
TIANYAN 01              
1 44881U 19093C   25008.44557369  .00001954  00000+0  23517-3 0  9994
2 44881  97.8101  87.2261 0014339  16.3974 343.7701 14.84969312273496
TIANYAN 02              
1 44882U 19093D   25008.45910112  .00010704  00000+0  96598-3 0  9997
2 44882  97.8317  95.8392 0012132 355.9633   4.1487 14.95644798273915
CBERS 4A                
1 44883U 19093E   25007.79935574  .00002676  00000+0  34604-3 0  9992
2 44883  97.8116  85.0354 0003309  78.6092 281.5493 14.81724063273283
WEILAI 1R               
1 44884U 19093F   25008.44510528  .00008932  00000+0  84979-3 0  9995
2 44884  97.8219  94.0280 0010768   2.5745 357.5528 14.93624272273898
FLORIPASAT-1            
1 44885U 19093G   25008.42317364  .00009028  00000+0  82173-3 0  9998
2 44885  97.8267  96.0000 0011198 358.4433   1.6751 14.95367058273982
SHUNTIAN                
1 44886U 19093H   25008.18226712  .00005887  00000+0  60318-3 0  9994
2 44886  97.8324  94.7252 0013129  14.6661 345.4935 14.90788294273832
